STARLINK-1470           
1 45772U 20038AU  26078.54770815  .00029704  00000+0  10532-2 0  9992
2 45772  53.0451 128.5287 0002439  31.2824 328.8319 15.28863642318580
STARLINK-1482           
1 45773U 20038AV  26078.47690375  .00036337  00000+0  12117-2 0  9998
2 45773  53.1587 145.5447 0001468  58.6266 301.4878 15.30763659318344
STARLINK-1496           
1 45780U 20038BC  26078.38381346  .00057257  00000+0  10102-2 0  9997
2 45780  53.0500 131.3688 0002129 276.4273  83.6493 15.49858687318516
STARLINK-1513           
1 45786U 20038BJ  26078.42240550  .00002643  00000+0  10135-3 0  9995
2 45786  53.1600 145.9436 0001323  75.7259 284.3889 15.30195837318335
STARLINK-1522           
1 46027U 20055A   26078.41597186  .00021602  00000+0  13467-2 0  9998
2 46027  53.0635  82.6308 0002257  75.9358 284.1883 15.09497825310359
STARLINK-1523           
1 46028U 20055B   26078.91667824  .00055008  00000+0  19056-2 0  9998
2 46028  53.1550  79.1487 0001608  86.2469 353.1657 15.29336469  5729
STARLINK-1526           
1 46029U 20055C   26078.91667824  .00051884  00000+0  17996-2 0  9998
2 46029  53.1550  79.1133 0001480  92.4829  46.5533 15.29323236  5774
STARLINK-1555           
1 46032U 20055F   26078.91667824  .00045946  00000+0  15962-2 0  9995
2 46032  53.1558  79.1867 0001481  94.2906  83.8663 15.29325350  5785
STARLINK-1556           
1 46033U 20055G   26078.91667824  .00054126  00000+0  18756-2 0  9990
2 46033  53.1559  79.0693 0001953  75.7890 266.5586 15.29334139  5535
STARLINK-1557           
1 46034U 20055H   26078.91667824  .00052600  00000+0  18238-2 0  9991
2 46034  53.1553  78.9703 0001925  79.5963 297.1558 15.29327917  5739
STARLINK-1558           
1 46035U 20055J   26078.91667824  .00046851  00000+0  16269-2 0  9995
2 46035  53.1562  79.1541 0001218  93.0474 142.7542 15.29332285  5839
STARLINK-1560           
1 46036U 20055K   26078.38761276  .00005916  00000+0  21706-3 0  9993
2 46036  53.1567  81.4615 0002223  78.0613 282.0636 15.29378261310383
STARLINK-1567           
1 46038U 20055M   26078.91667824  .01760970  00000+0  42348-1 0  9990
2 46038  53.0891  78.9676 0001447  77.3221 243.2182 15.37628610  5781
STARLINK-1569           
1 46039U 20055N   26078.91667824  .00088622  00000+0  29779-2 0  9991
2 46039  53.1579  79.2003 0000956  86.3266 104.8639 15.30101087  5839
STARLINK-1582           
1 46043U 20055S   26078.91667824  .00043769  00000+0  14825-2 0  9995
2 46043  53.1592  79.1895 0001247  83.5239  72.7297 15.30171463  5838
STARLINK-1591           
1 46045U 20055U   26078.91667824  .00098497  00000+0  34072-2 0  9991
2 46045  53.1524  79.1868 0001198  81.6715 297.4704 15.29100676  5787
