[{"OBJECT_NAME":"STARLINK-1470","OBJECT_ID":"2020-038AU","EPOCH":"2026-03-19T13:08:41.984160","MEAN_MOTION":15.28863642,"ECCENTRICITY":0.00024394,"INCLINATION":53.0451,"RA_OF_ASC_NODE":128.5287,"ARG_OF_PERICENTER":31.2824,"MEAN_ANOMALY":328.8319,"EPHEMERIS_TYPE":0,"CLASSIFICATION_TYPE":"U","NORAD_CAT_ID":45772,"ELEMENT_SET_NO":999,"REV_AT_EPOCH":31858,"BSTAR":0.0010532395,"MEAN_MOTION_DOT":0.00029704,"MEAN_MOTION_DDOT":0},{"OBJECT_NAME":"STARLINK-1482","OBJECT_ID":"2020-038AV","EPOCH":"2026-03-19T11:26:44.484000","MEAN_MOTION":15.30763659,"ECCENTRICITY":0.00014685,"INCLINATION":53.1587,"RA_OF_ASC_NODE":145.5447,"ARG_OF_PERICENTER":58.6266,"MEAN_ANOMALY":301.4878,"EPHEMERIS_TYPE":0,"CLASSIFICATION_TYPE":"U","NORAD_CAT_ID":45773,"ELEMENT_SET_NO":999,"REV_AT_EPOCH":31834,"BSTAR":0.0012116876,"MEAN_MOTION_DOT":0.00036337,"MEAN_MOTION_DDOT":0},{"OBJECT_NAME":"STARLINK-1496","OBJECT_ID":"2020-038BC","EPOCH":"2026-03-19T09:12:41.482944","MEAN_MOTION":15.49858687,"ECCENTRICITY":0.00021293,"INCLINATION":53.05,"RA_OF_ASC_NODE":131.3688,"ARG_OF_PERICENTER":276.4273,"MEAN_ANOMALY":83.6493,"EPHEMERIS_TYPE":0,"CLASSIFICATION_TYPE":"U","NORAD_CAT_ID":45780,"ELEMENT_SET_NO":999,"REV_AT_EPOCH":31851,"BSTAR":0.001010165,"MEAN_MOTION_DOT":0.00057257,"MEAN_MOTION_DDOT":0},{"OBJECT_NAME":"STARLINK-1513","OBJECT_ID":"2020-038BJ","EPOCH":"2026-03-19T10:08:15.835200","MEAN_MOTION":15.30195837,"ECCENTRICITY":0.00013237,"INCLINATION":53.16,"RA_OF_ASC_NODE":145.9436,"ARG_OF_PERICENTER":75.7259,"MEAN_ANOMALY":284.3889,"EPHEMERIS_TYPE":0,"CLASSIFICATION_TYPE":"U","NORAD_CAT_ID":45786,"ELEMENT_SET_NO":999,"REV_AT_EPOCH":31833,"BSTAR":0.00010135209,"MEAN_MOTION_DOT":2.643e-5,"MEAN_MOTION_DDOT":0},{"OBJECT_NAME":"STARLINK-1522","OBJECT_ID":"2020-055A","EPOCH":"2026-03-19T09:58:59.968704","MEAN_MOTION":15.09497825,"ECCENTRICITY":0.00022577,"INCLINATION":53.0635,"RA_OF_ASC_NODE":82.6308,"ARG_OF_PERICENTER":75.9358,"MEAN_ANOMALY":284.1883,"EPHEMERIS_TYPE":0,"CLASSIFICATION_TYPE":"U","NORAD_CAT_ID":46027,"ELEMENT_SET_NO":999,"REV_AT_EPOCH":31035,"BSTAR":0.0013466818,"MEAN_MOTION_DOT":0.00021602,"MEAN_MOTION_DDOT":0},{"OBJECT_NAME":"STARLINK-1523","OBJECT_ID":"2020-055B","EPOCH":"2026-03-19T22:00:00.999936","MEAN_MOTION":15.29336469,"ECCENTRICITY":0.00016088,"INCLINATION":53.155,"RA_OF_ASC_NODE":79.1487,"ARG_OF_PERICENTER":86.2469,"MEAN_ANOMALY":353.1657,"EPHEMERIS_TYPE":0,"CLASSIFICATION_TYPE":"U","NORAD_CAT_ID":46028,"ELEMENT_SET_NO":999,"REV_AT_EPOCH":572,"BSTAR":0.0019056297,"MEAN_MOTION_DOT":0.00055008,"MEAN_MOTION_DDOT":0},{"OBJECT_NAME":"STARLINK-1526","OBJECT_ID":"2020-055C","EPOCH":"2026-03-19T22:00:00.999936","MEAN_MOTION":15.29323236,"ECCENTRICITY":0.00014808,"INCLINATION":53.155,"RA_OF_ASC_NODE":79.1133,"ARG_OF_PERICENTER":92.4829,"MEAN_ANOMALY":46.5533,"EPHEMERIS_TYPE":0,"CLASSIFICATION_TYPE":"U","NORAD_CAT_ID":46029,"ELEMENT_SET_NO":999,"REV_AT_EPOCH":577,"BSTAR":0.0017995879,"MEAN_MOTION_DOT":0.00051884,"MEAN_MOTION_DDOT":0},{"OBJECT_NAME":"STARLINK-1555","OBJECT_ID":"2020-055F","EPOCH":"2026-03-19T22:00:00.999936","MEAN_MOTION":15.2932535,"ECCENTRICITY":0.00014819,"INCLINATION":53.1558,"RA_OF_ASC_NODE":79.1867,"ARG_OF_PERICENTER":94.2906,"MEAN_ANOMALY":83.8663,"EPHEMERIS_TYPE":0,"CLASSIFICATION_TYPE":"U","NORAD_CAT_ID":46032,"ELEMENT_SET_NO":999,"REV_AT_EPOCH":578,"BSTAR":0.0015962132,"MEAN_MOTION_DOT":0.00045946,"MEAN_MOTION_DDOT":0},{"OBJECT_NAME":"STARLINK-1556","OBJECT_ID":"2020-055G","EPOCH":"2026-03-19T22:00:00.999936","MEAN_MOTION":15.29334139,"ECCENTRICITY":0.00019531,"INCLINATION":53.1559,"RA_OF_ASC_NODE":79.0693,"ARG_OF_PERICENTER":75.789,"MEAN_ANOMALY":266.5586,"EPHEMERIS_TYPE":0,"CLASSIFICATION_TYPE":"U","NORAD_CAT_ID":46033,"ELEMENT_SET_NO":999,"REV_AT_EPOCH":553,"BSTAR":0.0018756188,"MEAN_MOTION_DOT":0.00054126,"MEAN_MOTION_DDOT":0},{"OBJECT_NAME":"STARLINK-1557","OBJECT_ID":"2020-055H","EPOCH":"2026-03-19T22:00:00.999936","MEAN_MOTION":15.29327917,"ECCENTRICITY":0.00019257,"INCLINATION":53.1553,"RA_OF_ASC_NODE":78.9703,"ARG_OF_PERICENTER":79.5963,"MEAN_ANOMALY":297.1558,"EPHEMERIS_TYPE":0,"CLASSIFICATION_TYPE":"U","NORAD_CAT_ID":46034,"ELEMENT_SET_NO":999,"REV_AT_EPOCH":573,"BSTAR":0.0018238138,"MEAN_MOTION_DOT":0.000526,"MEAN_MOTION_DDOT":0},{"OBJECT_NAME":"STARLINK-1558","OBJECT_ID":"2020-055J","EPOCH":"2026-03-19T22:00:00.999936","MEAN_MOTION":15.29332285,"ECCENTRICITY":0.00012184,"INCLINATION":53.1562,"RA_OF_ASC_NODE":79.1541,"ARG_OF_PERICENTER":93.0474,"MEAN_ANOMALY":142.7542,"EPHEMERIS_TYPE":0,"CLASSIFICATION_TYPE":"U","NORAD_CAT_ID":46035,"ELEMENT_SET_NO":999,"REV_AT_EPOCH":583,"BSTAR":0.0016268601,"MEAN_MOTION_DOT":0.00046851,"MEAN_MOTION_DDOT":0},{"OBJECT_NAME":"STARLINK-1560","OBJECT_ID":"2020-055K","EPOCH":"2026-03-19T09:18:09.742464","MEAN_MOTION":15.29378261,"ECCENTRICITY":0.00022239,"INCLINATION":53.1567,"RA_OF_ASC_NODE":81.4615,"ARG_OF_PERICENTER":78.0613,"MEAN_ANOMALY":282.0636,"EPHEMERIS_TYPE":0,"CLASSIFICATION_TYPE":"U","NORAD_CAT_ID":46036,"ELEMENT_SET_NO":999,"REV_AT_EPOCH":31038,"BSTAR":0.00021705629,"MEAN_MOTION_DOT":5.916e-5,"MEAN_MOTION_DDOT":0},{"OBJECT_NAME":"STARLINK-1567","OBJECT_ID":"2020-055M","EPOCH":"2026-03-19T22:00:00.999936","MEAN_MOTION":15.3762861,"ECCENTRICITY":0.00014471,"INCLINATION":53.0891,"RA_OF_ASC_NODE":78.9676,"ARG_OF_PERICENTER":77.3221,"MEAN_ANOMALY":243.2182,"EPHEMERIS_TYPE":0,"CLASSIFICATION_TYPE":"U","NORAD_CAT_ID":46038,"ELEMENT_SET_NO":999,"REV_AT_EPOCH":578,"BSTAR":0.042347657,"MEAN_MOTION_DOT":0.0176097,"MEAN_MOTION_DDOT":0},{"OBJECT_NAME":"STARLINK-1569","OBJECT_ID":"2020-055N","EPOCH":"2026-03-19T22:00:00.999936","MEAN_MOTION":15.30101087,"ECCENTRICITY":9.56e-5,"INCLINATION":53.1579,"RA_OF_ASC_NODE":79.2003,"ARG_OF_PERICENTER":86.3266,"MEAN_ANOMALY":104.8639,"EPHEMERIS_TYPE":0,"CLASSIFICATION_TYPE":"U","NORAD_CAT_ID":46039,"ELEMENT_SET_NO":999,"REV_AT_EPOCH":583,"BSTAR":0.0029778774,"MEAN_MOTION_DOT":0.00088622,"MEAN_MOTION_DDOT":0},{"OBJECT_NAME":"STARLINK-1582","OBJECT_ID":"2020-055S","EPOCH":"2026-03-19T22:00:00.999936","MEAN_MOTION":15.30171463,"ECCENTRICITY":0.00012473,"INCLINATION":53.1592,"RA_OF_ASC_NODE":79.1895,"ARG_OF_PERICENTER":83.5239,"MEAN_ANOMALY":72.7297,"EPHEMERIS_TYPE":0,"CLASSIFICATION_TYPE":"U","NORAD_CAT_ID":46043,"ELEMENT_SET_NO":999,"REV_AT_EPOCH":583,"BSTAR":0.0014825229,"MEAN_MOTION_DOT":0.00043769,"MEAN_MOTION_DDOT":0},{"OBJECT_NAME":"STARLINK-1591","OBJECT_ID":"2020-055U","EPOCH":"2026-03-19T22:00:00.999936","MEAN_MOTION":15.29100676,"ECCENTRICITY":0.00011989,"INCLINATION":53.1524,"RA_OF_ASC_NODE":79.1868,"ARG_OF_PERICENTER":81.6715,"MEAN_ANOMALY":297.4704,"EPHEMERIS_TYPE":0,"CLASSIFICATION_TYPE":"U","NORAD_CAT_ID":46045,"ELEMENT_SET_NO":999,"REV_AT_EPOCH":578,"BSTAR":0.0034072052,"MEAN_MOTION_DOT":0.00098497,"MEAN_MOTION_DDOT":0}]
